$$SOE
2459580.500000000, A.D. 2022-Jan-01 00:00:00.0000, -4.649272861961587E+08, -1.709801126518404E+08, 9.399210103676170E+06,
2459587.500000000, A.D. 2022-Jan-08 00:00:00.0000, -4.626353040013084E+08, -1.803436014721508E+08, 8.317975013408795E+06,
2459594.500000000, A.D. 2022-Jan-15 00:00:00.0000, -4.601599994610280E+08, -1.896356049387653E+08, 7.233443422379144E+06,
2459601.500000000, A.D. 2022-Jan-22 00:00:00.0000, -4.575036032298390E+08, -1.988529577091355E+08, 6.146064548406094E+06,
2459608.500000000, A.D. 2022-Jan-29 00:00:00.0000, -4.546683796601199E+08, -2.079925617656936E+08, 5.056282611215100E+06,
2459615.500000000, A.D. 2022-Feb-05 00:00:00.0000, -4.516566271226732E+08, -2.170513863224726E+08, 3.964536949482113E+06,
2459622.500000000, A.D. 2022-Feb-12 00:00:00.0000, -4.484706762309927E+08, -2.260264687748338E+08, 2.871261859812006E+06,
2459629.500000000, A.D. 2022-Feb-19 00:00:00.0000, -4.451128872928199E+08, -2.349149143258223E+08, 1.776886472302139E+06,
2459636.500000000, A.D. 2022-Feb-26 00:00:00.0000, -4.415856482981448E+08, -2.437138950146716E+08, 6.818347233081162E+05,
2459643.500000000, A.D. 2022-Mar-05 00:00:00.0000, -4.378913732824346E+08, -2.524206487671785E+08, -4.134746403034776E+05,
2459650.500000000, A.D. 2022-Mar-12 00:00:00.0000, -4.340325008416095E+08, -2.610324785361236E+08, -1.508628051819101E+06,
2459657.500000000, A.D. 2022-Mar-19 00:00:00.0000, -4.300114927256575E+08, -2.695467515056036E+08, -2.603217115109667E+06,
2459664.500000000, A.D. 2022-Mar-26 00:00:00.0000, -4.258308324858769E+08, -2.779608983671188E+08, -3.696838597943217E+06,
2459671.500000000, A.D. 2022-Apr-02 00:00:00.0000, -4.214930241053749E+08, -2.862724127256548E+08, -4.789094439540088E+06,
2459678.500000000, A.D. 2022-Apr-09 00:00:00.0000, -4.170005903388767E+08, -2.944788506336559E+08, -5.879591797504872E+06,
2459685.500000000, A.D. 2022-Apr-16 00:00:00.0000, -4.123560704035100E+08, -3.025778296012408E+08, -6.967943113991752E+06,
2459692.500000000, A.D. 2022-Apr-23 00:00:00.0000, -4.075620182881671E+08, -3.105670260000623E+08, -8.053765996576905E+06,
2459699.500000000, A.D. 2022-Apr-30 00:00:00.0000, -4.026210035499151E+08, -3.184441731075910E+08, -9.136682926214054E+06,
2459706.500000000, A.D. 2022-May-07 00:00:00.0000, -3.975356115334755E+08, -3.262070617672906E+08, -1.021632123487170E+07,
2459713.500000000, A.D. 2022-May-14 00:00:00.0000, -3.923084416232510E+08, -3.338535406278118E+08, -1.129231323225114E+07,
2459720.500000000, A.D. 2022-May-21 00:00:00.0000, -3.869421055568855E+08, -3.413815152031203E+08, -1.236429623339957E+07,
2459727.500000000, A.D. 2022-May-28 00:00:00.0000, -3.814392262765945E+08, -3.487889467132720E+08, -1.343191252179825E+07,
2459734.500000000, A.D. 2022-Jun-04 00:00:00.0000, -3.758024370389484E+08, -3.560738510201663E+08, -1.449480929912056E+07,
2459741.500000000, A.D. 2022-Jun-11 00:00:00.0000, -3.700343806368738E+08, -3.632342976577212E+08, -1.555263863497913E+07,
2459748.500000000, A.D. 2022-Jun-18 00:00:00.0000, -3.641377086940104E+08, -3.702684089444685E+08, -1.660505741931224E+07,
2459755.500000000, A.D. 2022-Jun-25 00:00:00.0000, -3.581150810008243E+08, -3.771743592125576E+08, -1.765172732294735E+07,
2459762.500000000, A.D. 2022-Jul-02 00:00:00.0000, -3.519691647571172E+08, -3.839503742194314E+08, -1.869231478408951E+07,
2459769.500000000, A.D. 2022-Jul-09 00:00:00.0000, -3.457026333292169E+08, -3.905947305655991E+08, -1.972649104210532E+07,
2459776.500000000, A.D. 2022-Jul-16 00:00:00.0000, -3.393181645754416E+08, -3.971057540359105E+08, -2.075393212503433E+07,
2459783.500000000, A.D. 2022-Jul-23 00:00:00.0000, -3.328184409362968E+08, -4.034818167867270E+08, -2.177431858276621E+07,
2459790.500000000, A.D. 2022-Jul-30 00:00:00.0000, -3.262061512033249E+08, -4.097213367336202E+08, -2.278733524765879E+07,
2459797.500000000, A.D. 2022-Aug-06 00:00:00.0000, -3.194839903667443E+08, -4.158227784928260E+08, -2.379267129972735E+07,
2459804.500000000, A.D. 2022-Aug-13 00:00:00.0000, -3.126546583643112E+08, -4.217846531226953E+08, -2.479002033567703E+07,
2459811.500000000, A.D. 2022-Aug-20 00:00:00.0000, -3.057208592994748E+08, -4.276055171685032E+08, -2.577908033876935E+07,
2459818.500000000, A.D. 2022-Aug-27 00:00:00.0000, -2.986853010590405E+08, -4.332839717371577E+08, -2.675955361498684E+07,
2459825.500000000, A.D. 2022-Sep-03 00:00:00.0000, -2.915506950807415E+08, -4.388186617126768E+08, -2.773114672720766E+07,
2459832.500000000, A.D. 2022-Sep-10 00:00:00.0000, -2.843197561792120E+08, -4.442082750891660E+08, -2.869357043372020E+07,
2459839.500000000, A.D. 2022-Sep-17 00:00:00.0000, -2.769952023998461E+08, -4.494515424237347E+08, -2.964653963401425E+07,
2459846.500000000, A.D. 2022-Sep-24 00:00:00.0000, -2.695797548391654E+08, -4.545472364607963E+08, -3.058977333169436E+07,
2459853.500000000, A.D. 2022-Oct-01 00:00:00.0000, -2.620761371907937E+08, -4.594941719504905E+08, -3.152299463856632E+07,
2459860.500000000, A.D. 2022-Oct-08 00:00:00.0000, -2.544870746088344E+08, -4.642912051394770E+08, -3.244593081486365E+07,
2459867.500000000, A.D. 2022-Oct-15 00:00:00.0000, -2.468152928195253E+08, -4.689372317349846E+08, -3.335831316245109E+07,
2459874.500000000, A.D. 2022-Oct-22 00:00:00.0000, -2.390635196614972E+08, -4.734311850258740E+08, -3.425987670884815E+07,
2459881.500000000, A.D. 2022-Oct-29 00:00:00.0000, -2.312344865556710E+08, -4.777720367546798E+08, -3.515036012357000E+07,
2459888.500000000, A.D. 2022-Nov-05 00:00:00.0000, -2.233309278051049E+08, -4.819587980002381E+08, -3.602950583575171E+07,
2459895.500000000, A.D. 2022-Nov-12 00:00:00.0000, -2.153555796893831E+08, -4.859905188034190E+08, -3.689706006949517E+07,
2459902.500000000, A.D. 2022-Nov-19 00:00:00.0000, -2.073111800720595E+08, -4.898662874889938E+08, -3.775277280898967E+07,
2459909.500000000, A.D. 2022-Nov-26 00:00:00.0000, -1.992004682573959E+08, -4.935852300798475E+08, -3.859639774994877E+07,
2459916.500000000, A.D. 2022-Dec-03 00:00:00.0000, -1.910261849284221E+08, -4.971465098145961E+08, -3.942769225360280E+07,
2459923.500000000, A.D. 2022-Dec-10 00:00:00.0000, -1.827910721190071E+08, -5.005493267504299E+08, -4.024641730607492E+07,
2459930.500000000, A.D. 2022-Dec-17 00:00:00.0000, -1.744978731941295E+08, -5.037929174773827E+08, -4.105233748769173E+07,
2459937.500000000, A.D. 2022-Dec-24 00:00:00.0000, -1.661493327285830E+08, -5.068765550110881E+08, -4.184522096785352E+07,
2459944.500000000, A.D. 2022-Dec-31 00:00:00.0000, -1.577481959264701E+08, -5.097995487572851E+08, -4.262483954959390E+07,
2459951.500000000, A.D. 2023-Jan-07 00:00:00.0000, -1.492972074587614E+08, -5.125612435858458E+08, -4.339096869643813E+07,
2459958.500000000, A.D. 2023-Jan-14 00:00:00.0000, -1.407991116855890E+08, -5.151610175169510E+08, -4.414338732042840E+07,
2459965.500000000, A.D. 2023-Jan-21 00:00:00.0000, -1.322566549070166E+08, -5.175982811912726E+08, -4.488187753133667E+07,
2459972.500000000, A.D. 2023-Jan-28 00:00:00.0000, -1.236725859731504E+08, -5.198724793197541E+08, -4.560622469948602E+07,
2459979.500000000, A.D. 2023-Feb-04 00:00:00.0000, -1.150496554615518E+08, -5.219830910857835E+08, -4.631621756562933E+07,
2459986.500000000, A.D. 2023-Feb-11 00:00:00.0000, -1.063906152167199E+08, -5.239296296933224E+08, -4.701164824894637E+07,
2459993.500000000, A.D. 2023-Feb-18 00:00:00.0000, -9.769821831425476E+07, -5.257116418837360E+08, -4.769231221449646E+07,
2460000.500000000, A.D. 2023-Feb-25 00:00:00.0000, -8.897521918607743E+07, -5.273287075825816E+08, -4.835800823730004E+07,
2460007.500000000, A.D. 2023-Mar-04 00:00:00.0000, -8.022437380351000E+07, -5.287804396570451E+08, -4.900853837074095E+07,
2460014.500000000, A.D. 2023-Mar-11 00:00:00.0000, -7.144843988850097E+07, -5.300664837832464E+08, -4.964370792173639E+07,
2460021.500000000, A.D. 2023-Mar-18 00:00:00.0000, -6.265017710492792E+07, -5.311865184728823E+08, -5.026332544091058E+07,
2460028.500000000, A.D. 2023-Mar-25 00:00:00.0000, -5.383234702586261E+07, -5.321402553065392E+08, -5.086720275013694E+07,
2460035.500000000, A.D. 2023-Apr-01 00:00:00.0000, -4.499771245165332E+07, -5.329274389803698E+08, -5.145515501407626E+07,
2460042.500000000, A.D. 2023-Apr-08 00:00:00.0000, -3.614903669372458E+07, -5.335478459410141E+08, -5.202700069896716E+07,
2460049.500000000, A.D. 2023-Apr-15 00:00:00.0000, -2.728908516049398E+07, -5.340012827142419E+08, -5.258256129449531E+07,
2460056.500000000, A.D. 2023-Apr-22 00:00:00.0000, -1.842062743511133E+07, -5.342875869786631E+08, -5.312166121399516E+07,
2460063.500000000, A.D. 2023-Apr-29 00:00:00.0000, -9.546437108894443E+06, -5.344066291320302E+08, -5.364412793983862E+07,
2460070.500000000, A.D. 2023-May-06 00:00:00.0000, -6.692911301036301E+05, -5.343583125696168E+08, -5.414979210715088E+07,
2460077.500000000, A.D. 2023-May-13 00:00:00.0000, 8.208030355594432E+06, -5.341425735683791E+08, -5.463848750944021E+07,
2460084.500000000, A.D. 2023-May-20 00:00:00.0000, 1.708274390759836E+07, -5.337593812679431E+08, -5.511005108796608E+07,
2460091.500000000, A.D. 2023-May-27 00:00:00.0000, 2.595206262978646E+07, -5.332087377777098E+08, -5.556432292526767E+07,
2460098.500000000, A.D. 2023-Jun-03 00:00:00.0000, 3.481319600507957E+07, -5.324906783839235E+08, -5.600114624632123E+07,
2460105.500000000, A.D. 2023-Jun-10 00:00:00.0000, 4.366334974968246E+07, -5.316052718704071E+08, -5.642036743098748E+07,
2460112.500000000, A.D. 2023-Jun-17 00:00:00.0000, 5.249972577680375E+07, -5.305526210132906E+08, -5.682183605119672E+07,
2460119.500000000, A.D. 2023-Jun-24 00:00:00.0000, 6.131952259041146E+07, -5.293328631945538E+08, -5.720540495802227E+07,
2460126.500000000, A.D. 2023-Jul-01 00:00:00.0000, 7.011993636244217E+07, -5.279461703066739E+08, -5.757093037443689E+07,
2460133.500000000, A.D. 2023-Jul-08 00:00:00.0000, 7.889816101946418E+07, -5.263927471261684E+08, -5.791827177312353E+07,
2460140.500000000, A.D. 2023-Jul-15 00:00:00.0000, 8.765138606220403E+07, -5.246728309846727E+08, -5.824729165341291E+07,
$$EOE